NOAA 1 [-]              
1 04793U 70106A   19046.82169189 -.00000047  00000-0 -15612-4 0  9993
2 04793 101.7198 116.9121 0032138 163.3896 306.1935 12.53988617204964
NOAA 2 (ITOS-D) [-]     
1 06235U 72082A   19046.83290097 -.00000043  00000-0  13069-4 0  9994
2 06235 101.7791  14.2594 0003751 252.5919 173.4196 12.53111109119453
NOAA 3 [-]              
1 06920U 73086A   19046.87200687 -.00000041  00000-0  27377-4 0  9995
2 06920 102.0348  17.2708 0006695  23.0658   8.2465 12.40345053 49838
NOAA 4 [-]              
1 07529U 74089A   19046.82426108 -.00000031  00000-0  90592-4 0  9996
2 07529 101.7361  15.8681 0008614 284.4878 137.0660 12.53125895 24025
NOAA 5 [-]              
1 09057U 76077A   19046.84382660 -.00000052  00000-0 -65929-4 0  9999
2 09057 101.9158  21.0522 0009643 235.0333 154.3632 12.37756353923089
TIROS N [P]             
1 11060U 78096A   19046.77291991  .00000006  00000-0  24571-4 0  9992
2 11060  98.8089 105.1718 0011184  45.5524 314.6564 14.18223993299006
NOAA 6 [P]              
1 11416U 79057A   19046.84642105  .00000025  00000-0  25135-4 0  9998
2 11416  98.6307  41.2365 0009301 248.8127 111.2064 14.33517018 67061
NOAA 7 [-]              
1 12553U 81059A   19046.94266787 -.00000019  00000-0  13559-4 0  9996
2 12553  99.0967  51.4351 0011050 335.3579  79.8481 14.17253978945337
NOAA 8 [-]              
1 13923U 83022A   19046.83912176  .00000003  00000-0  18528-4 0  9991
2 13923  98.5712  34.2100 0015270 171.9552 188.1877 14.28665324868549
NOAA 9 [P]              
1 15427U 84123A   19046.91848705 -.00000003  00000-0  20862-4 0  9995
2 15427  98.8780 356.1598 0015391  28.0940  12.7185 14.16059634764291
NOAA 10 [-]             
1 16969U 86073A   19046.63820369  .00000003  00000-0  18245-4 0  9999
2 16969  98.4746  46.7492 0011076 289.6421 180.4179 14.28063542687017
NOAA 11 [-]             
1 19531U 88089A   19046.70818115 -.00000016  00000-0  13043-4 0  9996
2 19531  98.4656  87.3180 0012354  89.4454 270.8136 14.15237050568571
NOAA 12 [-]             
1 21263U 91032A   19046.83614148  .00000004  00000-0  19787-4 0  9994
2 21263  98.5243  65.5911 0012707 305.2075  54.7915 14.25885968443203
NOAA 13 [-]             
1 22739U 93050A   19046.93050364  .00000018  00000-0  31584-4 0  9994
2 22739  98.4848  76.2160 0008733 227.7260 132.3173 14.12723310315143
NOAA 14 [-]             
1 23455U 94089A   19046.88646860 -.00000030  00000-0  63628-5 0  9999
2 23455  98.6142 112.6731 0008908 210.7131 149.3522 14.14126148244628
NOAA 15 [B]             
1 25338U 98030A   19046.82818128  .00000024  00000-0  28881-4 0  9996
2 25338  98.7571  68.2513 0009630 236.6723 123.3535 14.25894890 79482
NOAA 16 [-]             
1 26536U 00055A   19046.88782257 -.00000031  00000-0  68707-5 0  9997
2 26536  98.7892 121.1201 0011059  38.6758 321.5204 14.13222863245378
NOAA 17 [-]             
1 27453U 02032A   19046.81597631 -.00000004  00000-0  16597-4 0  9995
2 27453  98.5220   0.6822 0010930 216.0949 143.9494 14.25032395865435
NOAA 18 [B]             
1 28654U 05018A   19046.94168020  .00000036  00000-0  44549-4 0  9998
2 28654  99.1147  91.9661 0014742 159.8570 200.3185 14.12404259708098
NOAA 19 [+]             
1 33591U 09005A   19046.84693393  .00000034  00000-0  43983-4 0  9998
2 33591  99.1707  35.0561 0014099   7.1404 352.9965 14.12334554516301
SUOMI NPP [+]           
1 37849U 11061A   19046.86180737 -.00000006  00000-0  17936-4 0  9997
2 37849  98.7255 346.7811 0000818 114.9278 311.5431 14.19557091378444
NOAA 20 [+]             
1 43013U 17073A   19046.88417028 -.00000013  00000-0  14708-4 0  9996
2 43013  98.7511 346.8916 0000680  79.9267 280.1985 14.19539318 64484
